FORMOSAT 7-4            
1 44350U 19036M   21044.90866991  .00000963  00000-0  35603-4 0  9993
2 44350  23.9992 137.6629 0015132   5.4576 354.6091 15.10770656 89705
TBEX-B                  
1 44359U 19036W   21044.79162484  .00777795  24914-3  14301-2 0  9992
2 44359  28.5049  79.6837 0059832 258.0795 101.3105 15.96618471 91580
PAINANI 1               
1 44365U 19037A   21044.87670593  .00003538  00000-0  95301-4 0  9999
2 44365  45.0045 225.8652 0006429 204.3287 155.7298 15.39957968 91716
ACRUX 1                 
1 44369U 19037E   21044.80296496  .00009251  00000-0  19961-3 0  9997
2 44369  45.0056 209.4167 0012736 186.1512 173.9223 15.44867239 91859
METEOR-M2 2             
1 44387U 19038A   21044.84967107 -.00000031  00000-0  53014-5 0  9993
2 44387  98.6539   6.5160 0000272 200.8821 159.2353 14.23685408 83884
VDNH-80                 
1 44392U 19038G   21044.90542409  .00001033  00000-0  61436-4 0  9998
2 44392  97.5715  10.1670 0021943  22.7223  39.4752 15.13322836 88909
D-STAR ONE (LIGHTSAT)   
1 44393U 19038H   21044.88173506  .00001246  00000-0  73574-4 0  9996
2 44393  97.5726  10.0310 0022343  22.7243 337.4971 15.13201794 89093
AMGU-1 (AMURSAT)        
1 44394U 19038J   21044.89697295  .00001064  00000-0  63393-4 0  9990
2 44394  97.5709  10.0026 0022544  22.9503 337.2730 15.13182796 89094
DOT-1                   
1 44399U 19038P   21044.85063444  .00000992  00000-0  60553-4 0  9998
2 44399  97.5745   9.5482 0025282  25.0525 335.1926 15.12399116 89053
SOKRAT                  
1 44404U 19038U   21044.83617339  .00001459  00000-0  85906-4 0  9999
2 44404  97.5718   9.7615 0022734  24.4434 335.7870 15.13010265 89073
LUCKY-7                 
1 44406U 19038W   21044.89452788  .00000954  00000-0  58005-4 0  9991
2 44406  97.5738   9.7623 0024927  18.0230 342.1878 15.12661272 89063
D-STAR ONE (EXOCONNECT) 
1 44410U 19038AA  21044.85359722  .00002007  00000-0  11487-3 0  9999
2 44410  97.5697   9.9631 0022452  22.8435 337.3790 15.13606188 89092
NARSSCUBE-2             
1 44415U 19022E   21044.91645297  .00000501  00000-0  28914-4 0  9990
2 44415  51.6439 312.7314 0012137 100.8654 259.3693 15.30641814 85224
SWIATOWID               
1 44426U 98067QL  21044.92768840  .00158625  00000-0  54949-3 0  9996
2 44426  51.6347 180.3229 0003415 273.9720 183.3186 15.88482220 92434
KRAKSAT                 
1 44427U 98067QM  21044.87017921  .00011988  00000-0  14119-3 0  9993
2 44427  51.6400 206.2956 0003593 138.8696  10.8803 15.61850346 92123
ENTRYSAT                
1 44429U 98067QP  21044.87763712  .00040297  00000-0  34438-3 0  9992
2 44429  51.6328 196.0405 0002297 179.4122 180.6878 15.69062195 92262
NARSSCUBE-1             
1 44792U 98067QX  21044.83423900  .00021281  00000-0  26264-3 0  9993
2 44792  51.6374 216.0695 0005146 185.6649 174.4287 15.60100794 70225
DUCHIFAT-3              
1 44854U 19089C   21044.86488351  .00000437  00000-0  41463-4 0  9992
2 44854  36.9671 111.4188 0008058 226.6245 133.3837 14.99326435 64544
OPS-SAT                 
1 44878U 19092F   21044.59109766  .00001369  00000-0  74403-4 0  9997
2 44878  97.4705 229.9328 0012638 236.8497 123.1523 15.16126363 64066
FLORIPASAT-1            
1 44885U 19093G   21044.81715068  .00000244  00000-0  37307-4 0  9992
2 44885  97.9371 125.3482 0014192 349.1387  10.9509 14.82197718 62453
HUSKYSAT-1              
1 45119U 19071J   21044.87861323  .00001552  00000-0  56324-4 0  9994
2 45119  51.6414 275.6879 0011576 200.2013 159.8513 15.34877089 58181
G-SAT                   
1 45597U 98067RK  21044.87027097  .00009126  00000-0  14247-3 0  9990
2 45597  51.6393 226.8250 0004416 223.8644 136.1996 15.54601913 45366
QUETZAL-1               
1 45598U 98067RL  21044.80198153  .00013996  00000-0  20928-3 0  9999
2 45598  51.6394 227.1160 0002203 237.2980 122.7799 15.55289064 45289
BY70-2                  
1 45857U 20042B   21044.79367982  .00000901  00000-0  13613-3 0  9996
2 45857  97.9942 121.8128 0010059 245.9969 114.0182 14.76682498 33292
SALSAT                  
1 46495U 20068K   21044.93082417 -.00000266  00000-0 -14994-4 0  9996
2 46495  97.6835 343.2479 0018360 124.7235 235.5715 15.03341536 20777
NETSAT-4                
1 46504U 20068U   21044.79155111 -.00000058  00000-0  19925-6 0  9992
2 46504  97.6763 342.7752 0009589 158.4436 201.7185 15.01954249 20670
NETSAT-3                
1 46505U 20068V   21044.72837081 -.00000054  00000-0  49979-6 0  9997
2 46505  97.6772 342.6996 0008985 156.2067 203.9572 15.01924829 20670
NETSAT-1                
1 46506U 20068W   21044.73200089 -.00000053  00000-0  52371-6 0  9990
2 46506  97.6793 342.6925 0008219 151.6578 208.5085 15.01897073 20672
NETSAT-2                
1 46507U 20068X   21044.73362640 -.00000049  00000-0  86975-6 0  9995
2 46507  97.6787 342.6945 0008556 151.7424 208.4259 15.01876851 20621
BY70-3                  
1 46839U 20079N   21044.90983171  .00001916  00000-0  62896-4 0  9999
2 46839  97.2537 121.2206 0005683 294.3026 182.7031 15.32796372 15279
SPOC                    
1 46921U 98067RR  21044.92451830  .00007379  00000-0  12823-3 0  9990
2 46921  51.6415 230.9325 0001484 346.8103  13.2847 15.51923197 15668
BOBCAT-1                
1 46922U 98067RS  21044.90402018  .00010742  00000-0  17905-3 0  9997
2 46922  51.6416 230.7997 0001025 350.3126   9.7844 15.52558274 15623
NEUTRON-1               
1 46923U 98067RT  21044.93067283  .00007225  00000-0  12619-3 0  9991
2 46923  51.6414 230.9723 0001532   7.3514 352.7497 15.51816943 15695
1998-067RU              
1 46924U 98067RU  21044.87007167  .00017385  00000-0  27356-3 0  9992
2 46924  51.6402 230.5675 0001145  63.6805 296.4303 15.53691444 15669
DESCENT                 
1 46927U 98067RX  21044.80490124  .00007917  00000-0  13766-3 0  9997
2 46927  51.6413 231.6311 0001882  33.2111 326.8997 15.51791773 15586
OSCAR 7 (AO-7)          
1 07530U 74089B   21044.94788875 -.00000043  00000-0  12972-4 0  9993
2 07530 101.8385  19.6587 0011950 259.7182 115.7618 12.53647314116259
OPS 6582 (TRANSIT 5B-5) 
1 00965U 64083D   21044.91211991  .00000031  00000-0  30366-4 0  9991
2 00965  90.0206 194.1141 0039791 214.8956 262.0536 13.56751339779385
